{
  "type": "FeatureCollection",
  "features": [
    {
      "type": "Feature",
      "properties": {
        "norad_id": 57400,
        "name": "TIANMU-1 08",
        "group": "weather",
        "lat": -62.79941423843356,
        "lon": -149.64071468078143,
        "alt_km": 493.45967016790473,
        "timestamp": "2025-12-21T07:34:34.187896+00:00",
        "meta_object_name": "TIANMU-1 08",
        "meta_object_id": "2023-101B",
        "meta_epoch": "2025-12-20T22:39:20.461248",
        "meta_mean_motion": 15.28160913,
        "meta_eccentricity": 0.00072102,
        "meta_inclination": 97.2853,
        "meta_ra_of_asc_node": 44.4096,
        "meta_arg_of_pericenter": 60.8992,
        "meta_mean_anomaly": 299.2969,
        "meta_ephemeris_type": 0,
        "meta_classification_type": "U",
        "meta_norad_cat_id": 57400,
        "meta_element_set_no": 999,
        "meta_rev_at_epoch": 13440,
        "meta_bstar": 0.00018446362,
        "meta_mean_motion_dot": 4.993e-05,
        "meta_mean_motion_ddot": 0,
        "tle_line1": "1 57400U 23101B   25354.94398682  .00004993  00000+0  18446-3 0  9991",
        "tle_line2": "2 57400  97.2853  44.4096 0007210  60.8992 299.2969 15.28160913134407"
      },
      "geometry": {
        "type": "Point",
        "coordinates": [
          -149.64071468078143,
          -62.79941423843356
        ]
      }
    },
    {
      "type": "Feature",
      "properties": {
        "norad_id": 57401,
        "name": "TIANMU-1 09",
        "group": "weather",
        "lat": -42.45666677471676,
        "lon": 50.99989339652391,
        "alt_km": 488.8838388702816,
        "timestamp": "2025-12-21T07:34:34.187905+00:00",
        "meta_object_name": "TIANMU-1 09",
        "meta_object_id": "2023-101C",
        "meta_epoch": "2025-12-20T22:20:04.163136",
        "meta_mean_motion": 15.28193996,
        "meta_eccentricity": 0.00064752,
        "meta_inclination": 97.281,
        "meta_ra_of_asc_node": 43.9057,
        "meta_arg_of_pericenter": 61.4641,
        "meta_mean_anomaly": 298.725,
        "meta_ephemeris_type": 0,
        "meta_classification_type": "U",
        "meta_norad_cat_id": 57401,
        "meta_element_set_no": 999,
        "meta_rev_at_epoch": 13440,
        "meta_bstar": 0.00018307781,
        "meta_mean_motion_dot": 4.96e-05,
        "meta_mean_motion_ddot": 0,
        "tle_line1": "1 57401U 23101C   25354.93060374  .00004960  00000+0  18308-3 0  9996",
        "tle_line2": "2 57401  97.2810  43.9057 0006475  61.4641 298.7250 15.28193996134406"
      },
      "geometry": {
        "type": "Point",
        "coordinates": [
          50.99989339652391,
          -42.45666677471676
        ]
      }
    },
    {
      "type": "Feature",
      "properties": {
        "norad_id": 57402,
        "name": "TIANMU-1 10",
        "group": "weather",
        "lat": 50.32510525282513,
        "lon": -125.9820201133876,
        "alt_km": 474.7954550540544,
        "timestamp": "2025-12-21T07:34:34.187914+00:00",
        "meta_object_name": "TIANMU-1 10",
        "meta_object_id": "2023-101D",
        "meta_epoch": "2025-12-20T21:35:06.542592",
        "meta_mean_motion": 15.28184655,
        "meta_eccentricity": 0.00082177,
        "meta_inclination": 97.2891,
        "meta_ra_of_asc_node": 44.7337,
        "meta_arg_of_pericenter": 59.9414,
        "meta_mean_anomaly": 300.264,
        "meta_ephemeris_type": 0,
        "meta_classification_type": "U",
        "meta_norad_cat_id": 57402,
        "meta_element_set_no": 999,
        "meta_rev_at_epoch": 13439,
        "meta_bstar": 0.00018288207,
        "meta_mean_motion_dot": 4.955e-05,
        "meta_mean_motion_ddot": 0,
        "tle_line1": "1 57402U 23101D   25354.89938128  .00004955  00000+0  18288-3 0  9994",
        "tle_line2": "2 57402  97.2891  44.7337 0008217  59.9414 300.2640 15.28184655134394"
      },
      "geometry": {
        "type": "Point",
        "coordinates": [
          -125.9820201133876,
          50.32510525282513
        ]
      }
    },
    {
      "type": "Feature",
      "properties": {
        "norad_id": 57490,
        "name": "FENGYUN 3F",
        "group": "weather",
        "lat": -66.0071180994383,
        "lon": 83.61047847052455,
        "alt_km": 833.4605049791453,
        "timestamp": "2025-12-21T07:34:34.187923+00:00",
        "meta_object_name": "FENGYUN 3F",
        "meta_object_id": "2023-111A",
        "meta_epoch": "2025-12-20T21:44:47.713056",
        "meta_mean_motion": 14.19895531,
        "meta_eccentricity": 7.636e-05,
        "meta_inclination": 98.7073,
        "meta_ra_of_asc_node": 63.0674,
        "meta_arg_of_pericenter": 114.0806,
        "meta_mean_anomaly": 246.045,
        "meta_ephemeris_type": 0,
        "meta_classification_type": "U",
        "meta_norad_cat_id": 57490,
        "meta_element_set_no": 999,
        "meta_rev_at_epoch": 12356,
        "meta_bstar": 4.5677349e-05,
        "meta_mean_motion_dot": 5.3e-07,
        "meta_mean_motion_ddot": 0,
        "tle_line1": "1 57490U 23111A   25354.90610779  .00000053  00000+0  45677-4 0  9991",
        "tle_line2": "2 57490  98.7073  63.0674 0000763 114.0806 246.0450 14.19895531123567"
      },
      "geometry": {
        "type": "Point",
        "coordinates": [
          83.61047847052455,
          -66.0071180994383
        ]
      }
    },
    {
      "type": "Feature",
      "properties": {
        "norad_id": 58584,
        "name": "ARKTIKA-M 2",
        "group": "weather",
        "lat": 16.22172767159474,
        "lon": -177.60055581144576,
        "alt_km": 12029.51794822008,
        "timestamp": "2025-12-21T07:34:34.187934+00:00",
        "meta_object_name": "ARKTIKA-M 2",
        "meta_object_id": "2023-198A",
        "meta_epoch": "2025-12-20T07:20:06.590112",
        "meta_mean_motion": 2.00602824,
        "meta_eccentricity": 0.68654675,
        "meta_inclination": 63.225,
        "meta_ra_of_asc_node": 174.0676,
        "meta_arg_of_pericenter": 268.0739,
        "meta_mean_anomaly": 18.8406,
        "meta_ephemeris_type": 0,
        "meta_classification_type": "U",
        "meta_norad_cat_id": 58584,
        "meta_element_set_no": 999,
        "meta_rev_at_epoch": 1473,
        "meta_bstar": 0,
        "meta_mean_motion_dot": 2.01e-06,
        "meta_mean_motion_ddot": 0,
        "tle_line1": "1 58584U 23198A   25354.30563183  .00000201  00000+0  00000+0 0  9992",
        "tle_line2": "2 58584  63.2250 174.0676 6865467 268.0739  18.8406  2.00602824 14734"
      },
      "geometry": {
        "type": "Point",
        "coordinates": [
          -177.60055581144576,
          16.22172767159474
        ]
      }
    },
    {
      "type": "Feature",
      "properties": {
        "norad_id": 58645,
        "name": "TIANMU-1 11",
        "group": "weather",
        "lat": -20.487071154444795,
        "lon": -167.97961003881124,
        "alt_km": 495.5748221818858,
        "timestamp": "2025-12-21T07:34:34.187946+00:00",
        "meta_object_name": "TIANMU-1 11",
        "meta_object_id": "2023-205A",
        "meta_epoch": "2025-12-20T22:49:22.898208",
        "meta_mean_motion": 15.24690644,
        "meta_eccentricity": 0.00075313,
        "meta_inclination": 97.3595,
        "meta_ra_of_asc_node": 14.43,
        "meta_arg_of_pericenter": 275.5417,
        "meta_mean_anomaly": 84.4961,
        "meta_ephemeris_type": 0,
        "meta_classification_type": "U",
        "meta_norad_cat_id": 58645,
        "meta_element_set_no": 999,
        "meta_rev_at_epoch": 11034,
        "meta_bstar": 0.00017725634,
        "meta_mean_motion_dot": 4.314e-05,
        "meta_mean_motion_ddot": 0,
        "tle_line1": "1 58645U 23205A   25354.95095947  .00004314  00000+0  17726-3 0  9994",
        "tle_line2": "2 58645  97.3595  14.4300 0007531 275.5417  84.4961 15.24690644110349"
      },
      "geometry": {
        "type": "Point",
        "coordinates": [
          -167.97961003881124,
          -20.487071154444795
        ]
      }
    },
    {
      "type": "Feature",
      "properties": {
        "norad_id": 58646,
        "name": "TIANMU-1 12",
        "group": "weather",
        "lat": 48.67314985548567,
        "lon": 6.140336871133859,
        "alt_km": 491.39503489645267,
        "timestamp": "2025-12-21T07:34:34.187955+00:00",
        "meta_object_name": "TIANMU-1 12",
        "meta_object_id": "2023-205B",
        "meta_epoch": "2025-12-20T21:54:34.365600",
        "meta_mean_motion": 15.24575492,
        "meta_eccentricity": 0.00058248,
        "meta_inclination": 97.3582,
        "meta_ra_of_asc_node": 14.1953,
        "meta_arg_of_pericenter": 254.2194,
        "meta_mean_anomaly": 105.8401,
        "meta_ephemeris_type": 0,
        "meta_classification_type": "U",
        "meta_norad_cat_id": 58646,
        "meta_element_set_no": 999,
        "meta_rev_at_epoch": 11032,
        "meta_bstar": 0.0001764715,
        "meta_mean_motion_dot": 4.278e-05,
        "meta_mean_motion_ddot": 0,
        "tle_line1": "1 58646U 23205B   25354.91289775  .00004278  00000+0  17647-3 0  9996",
        "tle_line2": "2 58646  97.3582  14.1953 0005824 254.2194 105.8401 15.24575492110324"
      },
      "geometry": {
        "type": "Point",
        "coordinates": [
          6.140336871133859,
          48.67314985548567
        ]
      }
    }
  ]
}